start=new Date('2022-07-22T00:00:00.000Z').valueOf();
sats=[{"MEAN_ANOMALY":"120.6708","PERIAPSIS":"538.647","APOAPSIS":"540.910","PERIOD":"95.438","BSTAR":"-0.00021377000000","EPOCH":"2022-07-21T22:00:00.999936","SITE":"AFETR","CLASSIFICATION_TYPE":"U","OBJECT_ID":"2022-029AV","COUNTRY_CODE":"US","EPHEMERIS_TYPE":"0","ELEMENT_SET_NO":"999","NORAD_CAT_ID":"52131","TIME_SYSTEM":"UTC","ECCENTRICITY":"0.00016360","GP_ID":"208579090","TLE_LINE1":"1 52131U 22029AV  22202.91667824 -.00003688  00000-0 -21377-3 0  9998","MEAN_ELEMENT_THEORY":"SGP4","MEAN_MOTION_DOT":"-0.00003688","LAUNCH_DATE":"2022-03-19","MEAN_MOTION":"15.08829182","DECAY_DATE":null,"CENTER_NAME":"EARTH","MEAN_MOTION_DDOT":"0.0000000000000","OBJECT_NAME":"STARLINK-3711","OBJECT_TYPE":"PAYLOAD","RA_OF_ASC_NODE":"265.2205","REF_FRAME":"TEME","SEMIMAJOR_AXIS":"6917.913","INCLINATION":"53.2148","RCS_SIZE":"LARGE","FILE":"3519145","TLE_LINE2":"2 52131  53.2148 265.2205 0001636  43.5322 120.6708 15.08829182 20633","ARG_OF_PERICENTER":"43.5322","REV_AT_EPOCH":"2063"},{"RCS_SIZE":"LARGE","INCLINATION":"53.2131","TLE_LINE2":"2 52132  53.2131 265.2320 0001973  40.4333  83.7325 15.08813109 20632","FILE":"3519145","ARG_OF_PERICENTER":"40.4333","REV_AT_EPOCH":"2063","DECAY_DATE":null,"CENTER_NAME":"EARTH","MEAN_MOTION_DOT":"-0.00003159","MEAN_MOTION":"15.08813109","LAUNCH_DATE":"2022-03-19","OBJECT_TYPE":"PAYLOAD","MEAN_MOTION_DDOT":"0.0000000000000","OBJECT_NAME":"STARLINK-3718","REF_FRAME":"TEME","RA_OF_ASC_NODE":"265.2320","SEMIMAJOR_AXIS":"6917.963","GP_ID":"208579089","TIME_SYSTEM":"UTC","ELEMENT_SET_NO":"999","NORAD_CAT_ID":"52132","ECCENTRICITY":"0.00019730","TLE_LINE1":"1 52132U 22029AW  22202.91667824 -.00003159  00000-0 -18059-3 0  9995","MEAN_ELEMENT_THEORY":"SGP4","APOAPSIS":"541.192","PERIOD":"95.439","MEAN_ANOMALY":"83.7325","PERIAPSIS":"538.463","SITE":"AFETR","BSTAR":"-0.00018059000000","EPOCH":"2022-07-21T22:00:00.999936","EPHEMERIS_TYPE":"0","CLASSIFICATION_TYPE":"U","OBJECT_ID":"2022-029AW","COUNTRY_CODE":"US"},{"REV_AT_EPOCH":"130","ARG_OF_PERICENTER":"55.8126","FILE":"3519265","TLE_LINE2":"2 52133  53.2157 265.2197 0001573  55.8126 148.4228 15.08828686  1309","INCLINATION":"53.2157","RCS_SIZE":"LARGE","RA_OF_ASC_NODE":"265.2197","REF_FRAME":"TEME","SEMIMAJOR_AXIS":"6917.915","MEAN_MOTION_DDOT":"0.0000000000000","OBJECT_NAME":"STARLINK-3707","OBJECT_TYPE":"PAYLOAD","MEAN_MOTION_DOT":"-0.00004867","LAUNCH_DATE":"2022-03-19","MEAN_MOTION":"15.08828686","DECAY_DATE":null,"CENTER_NAME":"EARTH","MEAN_ELEMENT_THEORY":"SGP4","TLE_LINE1":"1 52133U 22029AX  22202.91667824 -.00004867  00000-0 -28796-3 0  9992","TIME_SYSTEM":"UTC","ELEMENT_SET_NO":"999","NORAD_CAT_ID":"52133","ECCENTRICITY":"0.00015730","GP_ID":"208605724","CLASSIFICATION_TYPE":"U","OBJECT_ID":"2022-029AX","COUNTRY_CODE":"US","EPHEMERIS_TYPE":"0","BSTAR":"-0.00028796000000","EPOCH":"2022-07-21T22:00:00.999936","SITE":"AFETR","MEAN_ANOMALY":"148.4228","PERIAPSIS":"538.692","APOAPSIS":"540.868","PERIOD":"95.438"},{"TIME_SYSTEM":"UTC","ELEMENT_SET_NO":"999","NORAD_CAT_ID":"52134","ECCENTRICITY":"0.00016750","GP_ID":"208606475","MEAN_ELEMENT_THEORY":"SGP4","TLE_LINE1":"1 52134U 22029AY  22202.91667824 -.00004232  00000-0 -24802-3 0  9993","EPOCH":"2022-07-21T22:00:00.999936","BSTAR":"-0.00024802000000","SITE":"AFETR","MEAN_ANOMALY":"136.2172","PERIAPSIS":"538.628","APOAPSIS":"540.946","PERIOD":"95.438","CLASSIFICATION_TYPE":"U","OBJECT_ID":"2022-029AY","COUNTRY_CODE":"US","EPHEMERIS_TYPE":"0","FILE":"3519265","TLE_LINE2":"2 52134  53.2158 265.2200 0001675  48.0125 136.2172 15.08826409  1306","INCLINATION":"53.2158","RCS_SIZE":"LARGE","REV_AT_EPOCH":"130","ARG_OF_PERICENTER":"48.0125","MEAN_MOTION_DDOT":"0.0000000000000","OBJECT_NAME":"STARLINK-3721","OBJECT_TYPE":"PAYLOAD","MEAN_MOTION_DOT":"-0.00004232","MEAN_MOTION":"15.08826409","LAUNCH_DATE":"2022-03-19","DECAY_DATE":null,"CENTER_NAME":"EARTH","REF_FRAME":"TEME","RA_OF_ASC_NODE":"265.2200","SEMIMAJOR_AXIS":"6917.922"},{"ARG_OF_PERICENTER":"60.1793","REV_AT_EPOCH":"130","INCLINATION":"53.2160","RCS_SIZE":"LARGE","FILE":"3519265","TLE_LINE2":"2 52135  53.2160 265.2176 0001516  60.1793 203.9541 15.08821995  1309","REF_FRAME":"TEME","RA_OF_ASC_NODE":"265.2176","SEMIMAJOR_AXIS":"6917.935","MEAN_MOTION_DOT":"-0.00007124","LAUNCH_DATE":"2022-03-19","MEAN_MOTION":"15.08821995","DECAY_DATE":null,"CENTER_NAME":"EARTH","MEAN_MOTION_DDOT":"0.0000000000000","OBJECT_NAME":"STARLINK-3729","OBJECT_TYPE":"PAYLOAD","TLE_LINE1":"1 52135U 22029AZ  22202.91667824 -.00007124  00000-0 -43017-3 0  9996","MEAN_ELEMENT_THEORY":"SGP4","ELEMENT_SET_NO":"999","NORAD_CAT_ID":"52135","TIME_SYSTEM":"UTC","ECCENTRICITY":"0.00015160","GP_ID":"208606719","OBJECT_ID":"2022-029AZ","CLASSIFICATION_TYPE":"U","COUNTRY_CODE":"US","EPHEMERIS_TYPE":"0","MEAN_ANOMALY":"203.9541","PERIAPSIS":"538.752","APOAPSIS":"540.849","PERIOD":"95.439","EPOCH":"2022-07-21T22:00:00.999936","BSTAR":"-0.00043017000000","SITE":"AFETR"},{"COUNTRY_CODE":"US","CLASSIFICATION_TYPE":"U","OBJECT_ID":"2022-029BA","EPHEMERIS_TYPE":"0","PERIAPSIS":"538.774","MEAN_ANOMALY":"155.7693","PERIOD":"95.439","APOAPSIS":"540.851","BSTAR":"-0.00033004000000","EPOCH":"2022-07-21T22:00:00.999936","SITE":"AFETR","TLE_LINE1":"1 52136U 22029BA  22202.91667824 -.00005534  00000-0 -33004-3 0  9995","MEAN_ELEMENT_THEORY":"SGP4","TIME_SYSTEM":"UTC","ELEMENT_SET_NO":"999","NORAD_CAT_ID":"52136","ECCENTRICITY":"0.00015010","GP_ID":"208606966","SEMIMAJOR_AXIS":"6917.948","REF_FRAME":"TEME","RA_OF_ASC_NODE":"265.2187","MEAN_MOTION":"15.08818009","LAUNCH_DATE":"2022-03-19","MEAN_MOTION_DOT":"-0.00005534","CENTER_NAME":"EARTH","DECAY_DATE":null,"OBJECT_NAME":"STARLINK-3720","MEAN_MOTION_DDOT":"0.0000000000000","OBJECT_TYPE":"PAYLOAD","ARG_OF_PERICENTER":"68.3804","REV_AT_EPOCH":"130","INCLINATION":"53.2152","RCS_SIZE":"LARGE","FILE":"3519265","TLE_LINE2":"2 52136  53.2152 265.2187 0001501  68.3804 155.7693 15.08818009  1304"},{"COUNTRY_CODE":"US","CLASSIFICATION_TYPE":"U","OBJECT_ID":"2022-029BB","EPHEMERIS_TYPE":"0","PERIAPSIS":"538.896","MEAN_ANOMALY":"225.1575","PERIOD":"95.439","APOAPSIS":"540.753","BSTAR":"-0.00039252000000","EPOCH":"2022-07-21T22:00:00.999936","SITE":"AFETR","TLE_LINE1":"1 52137U 22029BB  22202.91667824 -.00006525  00000-0 -39252-3 0  9998","MEAN_ELEMENT_THEORY":"SGP4","ELEMENT_SET_NO":"999","ECCENTRICITY":"0.00013420","NORAD_CAT_ID":"52137","TIME_SYSTEM":"UTC","GP_ID":"208607344","SEMIMAJOR_AXIS":"6917.959","REF_FRAME":"TEME","RA_OF_ASC_NODE":"265.2175","MEAN_MOTION":"15.08814204","LAUNCH_DATE":"2022-03-19","MEAN_MOTION_DOT":"-0.00006525","CENTER_NAME":"EARTH","DECAY_DATE":null,"OBJECT_NAME":"STARLINK-3733","MEAN_MOTION_DDOT":"0.0000000000000","OBJECT_TYPE":"PAYLOAD","ARG_OF_PERICENTER":"59.0077","REV_AT_EPOCH":"130","INCLINATION":"53.2168","RCS_SIZE":"LARGE","FILE":"3519265","TLE_LINE2":"2 52137  53.2168 265.2175 0001342  59.0077 225.1575 15.08814204  1305"},{"BSTAR":"-0.00038299000000","EPOCH":"2022-07-21T22:00:00.999936","SITE":"AFETR","MEAN_ANOMALY":"178.5387","PERIAPSIS":"538.853","APOAPSIS":"540.701","PERIOD":"95.438","OBJECT_ID":"2022-029BC","CLASSIFICATION_TYPE":"U","COUNTRY_CODE":"US","EPHEMERIS_TYPE":"0","ELEMENT_SET_NO":"999","ECCENTRICITY":"0.00013360","NORAD_CAT_ID":"52138","TIME_SYSTEM":"UTC","GP_ID":"208605975","MEAN_ELEMENT_THEORY":"SGP4","TLE_LINE1":"1 52138U 22029BC  22202.91667824 -.00006376  00000-0 -38299-3 0  9993","MEAN_MOTION_DDOT":"0.0000000000000","OBJECT_NAME":"STARLINK-3723","OBJECT_TYPE":"PAYLOAD","MEAN_MOTION_DOT":"-0.00006376","MEAN_MOTION":"15.08829716","LAUNCH_DATE":"2022-03-19","DECAY_DATE":null,"CENTER_NAME":"EARTH","REF_FRAME":"TEME","RA_OF_ASC_NODE":"265.2186","SEMIMAJOR_AXIS":"6917.912","FILE":"3519265","TLE_LINE2":"2 52138  53.2158 265.2186 0001336  65.6198 178.5387 15.08829716  1303","INCLINATION":"53.2158","RCS_SIZE":"LARGE","REV_AT_EPOCH":"130","ARG_OF_PERICENTER":"65.6198"},{"REF_FRAME":"TEME","RA_OF_ASC_NODE":"275.2268","SEMIMAJOR_AXIS":"6917.920","OBJECT_TYPE":"PAYLOAD","MEAN_MOTION_DDOT":"0.0000000000000","OBJECT_NAME":"STARLINK-3730","DECAY_DATE":null,"CENTER_NAME":"EARTH","MEAN_MOTION_DOT":"-0.00019332","MEAN_MOTION":"15.08826961","LAUNCH_DATE":"2022-03-19","REV_AT_EPOCH":"130","ARG_OF_PERICENTER":"51.7702","TLE_LINE2":"2 52139  53.2146 275.2268 0001629  51.7702 297.4412 15.08826961  1304","FILE":"3519265","RCS_SIZE":"LARGE","INCLINATION":"53.2146","EPHEMERIS_TYPE":"0","OBJECT_ID":"2022-029BD","CLASSIFICATION_TYPE":"U","COUNTRY_CODE":"US","SITE":"AFETR","BSTAR":"-0.00120020000000","EPOCH":"2022-07-21T22:00:00.999936","APOAPSIS":"540.912","PERIOD":"95.438","MEAN_ANOMALY":"297.4412","PERIAPSIS":"538.658","MEAN_ELEMENT_THEORY":"SGP4","TLE_LINE1":"1 52139U 22029BD  22202.91667824 -.00019332  00000-0 -12002-2 0  9993","GP_ID":"208606219","NORAD_CAT_ID":"52139","ELEMENT_SET_NO":"999","TIME_SYSTEM":"UTC","ECCENTRICITY":"0.00016290"},{"EPHEMERIS_TYPE":"0","CLASSIFICATION_TYPE":"U","OBJECT_ID":"2022-029BE","COUNTRY_CODE":"US","APOAPSIS":"540.907","PERIOD":"95.439","MEAN_ANOMALY":"242.7037","PERIAPSIS":"538.679","SITE":"AFETR","BSTAR":"-0.00041017000000","EPOCH":"2022-07-21T22:00:00.999936","TLE_LINE1":"1 52140U 22029BE  22202.91667824 -.00006807  00000-0 -41017-3 0  9997","MEAN_ELEMENT_THEORY":"SGP4","GP_ID":"208607333","ELEMENT_SET_NO":"999","NORAD_CAT_ID":"52140","ECCENTRICITY":"0.00016100","TIME_SYSTEM":"UTC","REF_FRAME":"TEME","RA_OF_ASC_NODE":"265.2177","SEMIMAJOR_AXIS":"6917.928","DECAY_DATE":null,"CENTER_NAME":"EARTH","MEAN_MOTION_DOT":"-0.00006807","MEAN_MOTION":"15.08824337","LAUNCH_DATE":"2022-03-19","OBJECT_TYPE":"PAYLOAD","MEAN_MOTION_DDOT":"0.0000000000000","OBJECT_NAME":"STARLINK-3682","ARG_OF_PERICENTER":"61.4947","REV_AT_EPOCH":"130","RCS_SIZE":"LARGE","INCLINATION":"53.2161","TLE_LINE2":"2 52140  53.2161 265.2177 0001610  61.4947 242.7037 15.08824337  1301","FILE":"3519265"}];
